IRIDIUM 150             
1 43257U 18030J   24328.09284035  .00000666  00000+0  23056-3 0  9999
2 43257  86.3997 169.1860 0001840  78.6554 281.4849 14.34221182348306
IRIDIUM 143             
1 43258U 18030K   24328.63193626  .00000234  00000+0  76632-4 0  9995
2 43258  86.3990 169.0311 0001816  76.7747 283.3651 14.34218516348349
IRIDIUM 161             
1 43478U 18047C   24328.50686792  .00000405  00000+0  11435-3 0  9993
2 43478  86.4472 326.9648 0002309  85.8329 274.3135 14.43278159342824
IRIDIUM 152             
1 43479U 18047D   24328.46512091  .00000357  00000+0  12053-3 0  9992
2 43479  86.3946 326.8417 0002422  91.2102 268.9371 14.34219494340689
IRIDIUM 147             
1 43480U 18047E   24328.40169058  .00000364  00000+0  12301-3 0  9993
2 43480  86.3943 326.8639 0002441  96.1331 264.0142 14.34217432340675
IRIDIUM 110             
1 43481U 18047F   24328.33826700  .00000364  00000+0  12305-3 0  9994
2 43481  86.3952 326.9672 0002782  94.7551 265.3963 14.34218098340652
IRIDIUM 162             
1 43482U 18047G   24328.50056617  .00000404  00000+0  11412-3 0  9999
2 43482  86.4470 326.8654 0002526  90.3718 269.7772 14.43274600342818
IRIDIUM 160             
1 43569U 18061A   24328.42363052  .00000737  00000+0  25619-3 0  9999
2 43569  86.3936 295.2886 0002271  93.1920 266.9535 14.34222159331567
